ONEWEB-0033             
1 45142U 20008M   25266.03067568  .00000467  00000+0  13014-2 0  9999
2 45142  87.8740  89.5597 0001547  93.2391 266.8914 13.10375099273229
ONEWEB-0035             
1 45143U 20008N   25266.21408819  .00000010  00000+0 -68028-5 0  9991
2 45143  87.8732  89.5247 0001581  92.7029 267.4280 13.10369720272971
ONEWEB-0036             
1 45144U 20008P   25266.05142340  .00000421  00000+0  11705-2 0  9990
2 45144  87.8751  89.5067 0001792  79.1457 280.9872 13.10370119273388
ONEWEB-0038             
1 45145U 20008Q   25265.97759326 -.00000066  00000+0 -22202-3 0  9991
2 45145  87.8791  74.2880 0000157 309.0128  51.0986 13.11420202275308
ONEWEB-0039             
1 45146U 20008R   25266.03396333  .00000207  00000+0  55752-3 0  9996
2 45146  87.8753  89.5277 0001862  75.1222 285.0112 13.10413495273174
ONEWEB-0040             
1 45147U 20008S   25266.02734509  .00000360  00000+0  99379-3 0  9990
2 45147  87.8743  89.5589 0001624  85.6285 274.5028 13.10378876272879
ONEWEB-0043             
1 45149U 20008U   25266.02901672  .00000447  00000+0  12430-2 0  9997
2 45149  87.8742  89.5410 0001865  73.7716 286.3617 13.10375471273196
ONEWEB-0044             
1 45150U 20008V   25266.05722725  .00000205  00000+0  55145-3 0  9995
2 45150  87.8734  89.5266 0001736  79.6360 280.4963 13.10369833273492
